NORAD_CAT_ID,OBJECT_NAME,OBJECT_TYPE,EPOCH,MEAN_MOTION,ECCENTRICITY,INCLINATION,RA_OF_ASC_NODE,ARG_OF_PERICENTER,MEAN_ANOMALY,BSTAR,MEAN_MOTION_DOT,MEAN_MOTION_DDOT,TLE_LINE0,TLE_LINE1,TLE_LINE2,SEMIMAJOR_AXIS,PERIOD,APOGEE,PERIGEE,DECAYED
55925.0,STARLINK-5922,PAYLOAD,2023-10-05 13:09:48,14.98332033,0.000305,70.0004,18.6615,271.422,88.659,-3.8649e-05,-5.54e-06,0.0,0 STARLINK-5922,1 55925U 23037M   23278.54848117 -.00000554  00000-0 -38649-4 0  9991,2 55925  70.0004  18.6615 0003050 271.4220  88.6590 14.98332033 30759,6950.187,96.107,574.171,569.932,0.0
55925.0,STARLINK-5922,PAYLOAD,2023-10-05 16:22:04,14.98332859,0.0002919,70.0007,18.3255,268.8359,91.2466,1.2271e-05,5.3e-07,0.0,0 STARLINK-5922,1 55925U 23037M   23278.68199920  .00000053  00000-0  12271-4 0  9992,2 55925  70.0007  18.3255 0002919 268.8359  91.2466 14.98332859 30775,6950.184,96.107,574.078,570.02,0.0
55925.0,STARLINK-5922,PAYLOAD,2023-10-06 09:59:34,14.98323938,0.0002731,70.0014,16.4738,264.12,95.9648,-5.9633e-05,-8.04e-06,0.0,0 STARLINK-5922,1 55925U 23037M   23279.41636719 -.00000804  00000-0 -59633-4 0  9995,2 55925  70.0014  16.4738 0002731 264.1200  95.9648 14.98323938 31226,6950.212,96.107,573.975,570.179,0.0
55925.0,STARLINK-5922,PAYLOAD,2023-10-06 13:11:49,14.98331009,0.000267,70.0017,16.1386,261.0358,99.0499,-3.5193e-05,-5.13e-06,0.0,0 STARLINK-5922,1 55925U 23037M   23279.54988228 -.00000513  00000-0 -35193-4 0  9996,2 55925  70.0017  16.1386 0002670 261.0358  99.0499 14.98331009 30908,6950.19,96.107,573.91,570.199,0.0
55925.0,STARLINK-5922,PAYLOAD,2023-10-06 16:24:05,14.98333621,0.0002949,70.001,15.8011,268.721,91.3611,-3.4096e-05,-5e-06,0.0,0 STARLINK-5922,1 55925U 23037M   23279.68340066 -.00000500  00000-0 -34096-4 0  9990,2 55925  70.0010  15.8011 0002949 268.7210  91.3611 14.98333621 31265,6950.182,96.107,574.096,569.997,0.0
55925.0,STARLINK-5922,PAYLOAD,2023-10-07 13:13:50,14.98324657,0.0002901,70.001,13.6125,269.8996,90.183,0.00021027,2.416e-05,0.0,0 STARLINK-5922,1 55925U 23037M   23280.55128033  .00002416  00000-0  21027-3 0  9991,2 55925  70.0010  13.6125 0002901 269.8996  90.1830 14.98324657 31054,6950.209,96.107,574.091,570.058,0.0
55925.0,STARLINK-5922,PAYLOAD,2023-10-07 16:26:06,14.98324646,0.0002847,70.0012,13.2757,269.9987,90.0846,0.00027639,3.206e-05,0.0,0 STARLINK-5922,1 55925U 23037M   23280.68479910  .00003206  00000-0  27639-3 0  9991,2 55925  70.0012  13.2757 0002847 269.9987  90.0846 14.98324646 31417,6950.209,96.107,574.053,570.096,0.0
55925.0,STARLINK-5922,PAYLOAD,2023-10-08 13:15:51,14.98330912,0.000255,70.0017,11.0904,257.5539,102.5335,-1.9019e-05,-3.2e-06,0.0,0 STARLINK-5922,1 55925U 23037M   23281.55268291 -.00000320  00000-0 -19019-4 0  9996,2 55925  70.0017  11.0904 0002550 257.5539 102.5335 14.98330912 31201,6950.19,96.107,573.827,570.283,0.0
55925.0,STARLINK-5922,PAYLOAD,2023-10-08 16:28:07,14.98329228,0.0002759,70.0017,10.7537,262.3976,97.6869,4.34e-05,4.25e-06,0.0,0 STARLINK-5922,1 55925U 23037M   23281.68620237  .00000425  00000-0  43400-4 0  9997,2 55925  70.0017  10.7537 0002759 262.3976  97.6869 14.98329228 31562,6950.195,96.107,573.978,570.143,0.0
55925.0,STARLINK-5922,PAYLOAD,2023-10-08 22:52:39,14.98358906,0.00031,70.0014,10.0779,270.3492,89.7312,-0.00052451,-6.35e-05,0.0,0 STARLINK-5922,1 55925U 23037M   23281.95323599 -.00006350  00000-0 -52451-3 0  9998,2 55925  70.0014  10.0779 0003100 270.3492  89.7312 14.98358906 31608,6950.104,96.105,574.123,569.814,0.0
55925.0,STARLINK-5922,PAYLOAD,2023-10-09 08:29:28,14.98327472,0.0002798,70.002,9.0688,272.7464,87.3375,-1.6363e-05,-2.88e-06,0.0,0 STARLINK-5922,1 55925U 23037M   23282.35380597 -.00000288  00000-0 -16363-4 0  9991,2 55925  70.0020   9.0688 0002798 272.7464  87.3375 14.98327472 31662,6950.201,96.107,574.01,570.121,0.0
55925.0,STARLINK-5922,PAYLOAD,2023-10-09 13:17:52,14.98331059,0.0002904,70.0009,8.5616,274.3364,85.7463,1.8631e-05,1.29e-06,0.0,0 STARLINK-5922,1 55925U 23037M   23282.55408257  .00000129  00000-0  18631-4 0  9999,2 55925  70.0009   8.5616 0002904 274.3364  85.7463 14.98331059 31352,6950.19,96.107,574.073,570.036,0.0
55925.0,STARLINK-5922,PAYLOAD,2023-10-09 14:54:00,14.98335859,0.0002969,70.001,8.3933,277.7845,82.2977,8.0952e-05,8.73e-06,0.0,0 STARLINK-5922,1 55925U 23037M   23282.62083816  .00000873  00000-0  80952-4 0  9998,2 55925  70.0010   8.3933 0002969 277.7845  82.2977 14.98335859 31709,6950.175,96.107,574.103,569.976,0.0
55925.0,STARLINK-5922,PAYLOAD,2023-10-10 13:19:52,14.98335471,0.0002731,70.0012,6.0381,265.1184,94.9663,0.00011134,1.236e-05,0.0,0 STARLINK-5922,1 55925U 23037M   23283.55547385  .00001236  00000-0  11134-3 0  9996,2 55925  70.0012   6.0381 0002731 265.1184  94.9663 14.98335471 31507,6950.176,96.107,573.939,570.143,0.0
55925.0,STARLINK-5922,PAYLOAD,2023-10-10 14:56:00,14.98341156,0.0002964,70.0008,5.8688,277.93,82.1522,0.00017219,1.963e-05,0.0,0 STARLINK-5922,1 55925U 23037M   23283.62222896  .00001963  00000-0  17219-3 0  9998,2 55925  70.0008   5.8688 0002964 277.9300  82.1522 14.98341156 31856,6950.158,96.106,574.083,569.963,0.0
55925.0,STARLINK-5922,PAYLOAD,2023-10-11 10:09:38,14.98325785,0.0002743,70.0014,3.8512,268.8773,91.2072,-7.7565e-06,-1.85e-06,0.0,0 STARLINK-5922,1 55925U 23037M   23284.42336294 -.00000185  00000-0 -77565-5 0  9994,2 55925  70.0014   3.8512 0002743 268.8773  91.2072 14.98325785 31979,6950.206,96.107,573.977,570.164,0.0
55925.0,STARLINK-5922,PAYLOAD,2023-10-11 13:21:55,14.9832071,0.0002937,70.0006,3.5123,275.8425,84.2399,-0.00010227,-1.313e-05,0.0,0 STARLINK-5922,1 55925U 23037M   23284.55688883 -.00001313  00000-0 -10227-3 0  9996,2 55925  70.0006   3.5123 0002937 275.8425  84.2399 14.98320710 31654,6950.222,96.108,574.128,570.045,0.0
55925.0,STARLINK-5922,PAYLOAD,2023-10-12 13:23:54,14.98338034,0.0003001,70.0004,0.9878,272.7604,87.3212,-7.69e-06,-1.85e-06,0.0,0 STARLINK-5922,1 55925U 23037M   23285.55827546 -.00000185  00000-0 -76900-5 0  9996,2 55925  70.0004   0.9878 0003001 272.7604  87.3212 14.98338034 31801,6950.168,96.106,574.119,569.947,0.0
55925.0,STARLINK-5922,PAYLOAD,2023-10-12 15:00:02,14.98339251,0.0002982,70.0004,0.8194,272.6695,87.4123,1.0038e-05,2.7e-07,0.0,0 STARLINK-5922,1 55925U 23037M   23285.62503395  .00000027  00000-0  10038-4 0  9999,2 55925  70.0004   0.8194 0002982 272.6695  87.4123 14.98339251 32150,6950.164,96.106,574.102,569.957,0.0
55925.0,STARLINK-5922,PAYLOAD,2023-10-12 23:00:43,14.9833576,0.0002997,70.0009,359.978,291.5841,68.4998,-0.00011775,-1.498e-05,0.0,0 STARLINK-5922,1 55925U 23037M   23285.95883968 -.00001498  00000-0 -11775-3 0  9995,2 55925  70.0009 359.9780 0002997 291.5841  68.4998 14.98335760 32209,6950.175,96.107,574.123,569.957,0.0
55925.0,STARLINK-5922,PAYLOAD,2023-10-13 13:25:56,14.98330266,0.0002999,70.0003,358.4633,274.9227,85.1589,9.7122e-05,1.066e-05,0.0,0 STARLINK-5922,1 55925U 23037M   23286.55967781  .00001066  00000-0  97122-4 0  9998,2 55925  70.0003 358.4633 0002999 274.9227  85.1589 14.98330266 31958,6950.192,96.107,574.141,569.973,0.0
55925.0,STARLINK-5922,PAYLOAD,2023-10-13 15:02:04,14.98332045,0.0002988,70.0004,358.295,274.8481,85.2337,0.00011465,1.275e-05,0.0,0 STARLINK-5922,1 55925U 23037M   23286.62643621  .00001275  00000-0  11465-3 0  9997,2 55925  70.0004 358.2950 0002988 274.8481  85.2337 14.98332045 31968,6950.187,96.107,574.128,569.975,0.0
55925.0,STARLINK-5922,PAYLOAD,2023-10-14 10:15:40,14.983354,0.0002928,70.0005,356.275,274.7819,85.3005,6.2498e-05,6.53e-06,0.0,0 STARLINK-5922,1 55925U 23037M   23287.42755399  .00000653  00000-0  62498-4 0  9994,2 55925  70.0005 356.2750 0002928 274.7819  85.3005 14.98335400 32426,6950.176,96.107,574.076,570.006,0.0
55925.0,STARLINK-5922,PAYLOAD,2023-10-14 13:27:56,14.98338967,0.0002818,70.0005,355.9384,271.4254,88.6582,8.8996e-05,9.69e-06,0.0,0 STARLINK-5922,1 55925U 23037M   23287.56107012  .00000969  00000-0  88996-4 0  9993,2 55925  70.0005 355.9384 0002818 271.4254  88.6582 14.98338967 32102,6950.165,96.106,573.989,570.072,0.0
55925.0,STARLINK-5922,PAYLOAD,2023-10-14 21:28:37,14.98328839,0.0002808,70.001,355.0971,273.3718,86.712,-3.7055e-05,-5.35e-06,0.0,0 STARLINK-5922,1 55925U 23037M   23287.89487842 -.00000535  00000-0 -37055-4 0  9992,2 55925  70.0010 355.0971 0002808 273.3718  86.7120 14.98328839 32155,6950.196,96.107,574.013,570.11,0.0
55925.0,STARLINK-5922,PAYLOAD,2023-10-15 03:53:10,14.98323055,0.0002426,70.0014,354.425,273.6654,86.4227,-3.8061e-05,-5.47e-06,0.0,0 STARLINK-5922,1 55925U 23037M   23288.16192427 -.00000547  00000-0 -38061-4 0  9996,2 55925  70.0014 354.4250 0002426 273.6654  86.4227 14.98323055 32532,6950.214,96.107,573.765,570.393,0.0
55925.0,STARLINK-5922,PAYLOAD,2023-10-15 11:53:51,14.98313677,0.0002373,70.0013,353.5832,266.4568,93.632,-0.00013692,-1.725e-05,0.0,0 STARLINK-5922,1 55925U 23037M   23288.49573467 -.00001725  00000-0 -13692-3 0  9990,2 55925  70.0013 353.5832 0002373 266.4568  93.6320 14.98313677 32580,6950.243,96.108,573.758,570.459,0.0
55925.0,STARLINK-5922,PAYLOAD,2023-10-15 13:29:59,14.98315267,0.0002525,70.0009,353.4154,268.1842,91.9027,-0.00017453,-2.174e-05,0.0,0 STARLINK-5922,1 55925U 23037M   23288.56249512 -.00002174  00000-0 -17453-3 0  9997,2 55925  70.0009 353.4154 0002525 268.1842  91.9027 14.98315267 32250,6950.238,96.108,573.858,570.349,0.0
55925.0,STARLINK-5922,PAYLOAD,2023-10-15 21:30:39,14.9832599,0.0002943,69.9998,352.5716,272.3005,87.7817,-9.3797e-05,-1.212e-05,0.0,0 STARLINK-5922,1 55925U 23037M   23288.89628704 -.00001212  00000-0 -93797-4 0  9995,2 55925  69.9998 352.5716 0002943 272.3005  87.7817 14.98325990 32300,6950.205,96.107,574.116,570.025,0.0
55925.0,STARLINK-5922,PAYLOAD,2023-10-16 08:43:35,14.98332871,0.000315,69.9989,351.3918,274.7062,85.3737,-4.5437e-05,-6.35e-06,0.0,0 STARLINK-5922,1 55925U 23037M   23289.36360169 -.00000635  00000-0 -45437-4 0  9992,2 55925  69.9989 351.3918 0003150 274.7062  85.3737 14.98332871 32717,6950.184,96.107,574.238,569.86,0.0
